[{"OBJECT_NAME":"OBJECT C","OBJECT_ID":"2023-104C","EPOCH":"2026-03-09T22:39:44.230752","MEAN_MOTION":15.26846312,"ECCENTRICITY":0.00113074,"INCLINATION":97.273,"RA_OF_ASC_NODE":135.3333,"ARG_OF_PERICENTER":3.876,"MEAN_ANOMALY":356.2565,"EPHEMERIS_TYPE":0,"CLASSIFICATION_TYPE":"U","NORAD_CAT_ID":57426,"ELEMENT_SET_NO":999,"REV_AT_EPOCH":14663,"BSTAR":0.00062618506,"MEAN_MOTION_DOT":0.00016495,"MEAN_MOTION_DDOT":0},{"OBJECT_NAME":"STARLINK-36496","OBJECT_ID":"2026-002AA","EPOCH":"2026-03-09T01:33:51.489792","MEAN_MOTION":15.27564785,"ECCENTRICITY":0.00017394,"INCLINATION":43.0006,"RA_OF_ASC_NODE":328.7667,"ARG_OF_PERICENTER":272.1531,"MEAN_ANOMALY":87.9121,"EPHEMERIS_TYPE":0,"CLASSIFICATION_TYPE":"U","NORAD_CAT_ID":67329,"ELEMENT_SET_NO":999,"REV_AT_EPOCH":1096,"BSTAR":0.0013789403,"MEAN_MOTION_DOT":0.00037861,"MEAN_MOTION_DDOT":0}]
